NORAD_CAT_ID,OBJECT_NAME,OBJECT_TYPE,EPOCH,MEAN_MOTION,ECCENTRICITY,INCLINATION,RA_OF_ASC_NODE,ARG_OF_PERICENTER,MEAN_ANOMALY,BSTAR,MEAN_MOTION_DOT,MEAN_MOTION_DDOT,TLE_LINE0,TLE_LINE1,TLE_LINE2,SEMIMAJOR_AXIS,PERIOD,APOGEE,PERIGEE,DECAYED
54080.0,STARLINK-5160,PAYLOAD,2024-06-05 21:38:33,15.08837426,0.0001435,53.2148,340.3838,79.3187,280.7967,0.00013239,1.82e-05,0.0,0 STARLINK-5160,1 54080U 22136AF  24157.90177596  .00001820  00000-0  13239-3 0  9996,2 54080  53.2148 340.3838 0001435  79.3187 280.7967 15.08837426 90023,6917.888,95.438,540.746,538.761,0.0
54080.0,STARLINK-5160,PAYLOAD,2024-06-06 05:35:29,15.08838152,0.0001563,53.2177,338.8993,75.3465,284.77,0.00013194,1.812e-05,0.0,0 STARLINK-5160,1 54080U 22136AF  24158.23297748  .00001812  00000-0  13194-3 0  9996,2 54080  53.2177 338.8993 0001563  75.3465 284.7700 15.08838152 90077,6917.886,95.438,540.832,538.67,0.0
54080.0,STARLINK-5160,PAYLOAD,2024-06-06 18:18:34,15.08846071,0.0001718,53.2127,336.5196,79.0961,281.0225,0.00019698,2.849e-05,0.0,0 STARLINK-5160,1 54080U 22136AF  24158.76289453  .00002849  00000-0  19698-3 0  9994,2 54080  53.2127 336.5196 0001718  79.0961 281.0225 15.08846071 90639,6917.862,95.437,540.915,538.538,0.0
54080.0,STARLINK-5160,PAYLOAD,2024-06-07 18:09:21,15.08840728,0.0001421,53.2148,332.0578,84.985,275.1304,0.00011964,1.617e-05,0.0,0 STARLINK-5160,1 54080U 22136AF  24159.75649678  .00001617  00000-0  11964-3 0  9993,2 54080  53.2148 332.0578 0001421  84.9850 275.1304 15.08840728 90781,6917.878,95.438,540.726,538.76,0.0
54080.0,STARLINK-5160,PAYLOAD,2024-06-07 21:20:07,15.08849294,0.0001486,53.2129,331.463,87.0844,273.0318,-7.4961e-05,-1.481e-05,0.0,0 STARLINK-5160,1 54080U 22136AF  24159.88897216 -.00001481  00000-0 -74961-4 0  9998,2 54080  53.2129 331.4630 0001486  87.0844 273.0318 15.08849294 90329,6917.852,95.437,540.745,538.689,0.0
54080.0,STARLINK-5160,PAYLOAD,2024-06-08 21:10:52,15.08867272,0.0001555,53.2169,327.0019,93.136,266.981,0.00044928,6.875e-05,0.0,0 STARLINK-5160,1 54080U 22136AF  24160.88255397  .00006875  00000-0  44928-3 0  9997,2 54080  53.2169 327.0019 0001555  93.1360 266.9810 15.08867272 90956,6917.797,95.436,540.738,538.586,0.0
54080.0,STARLINK-5160,PAYLOAD,2024-06-09 03:32:25,15.0885186,0.0001943,53.2166,325.8132,76.229,283.8918,0.00013293,1.829e-05,0.0,0 STARLINK-5160,1 54080U 22136AF  24161.14752104  .00001829  00000-0  13293-3 0  9990,2 54080  53.2166 325.8132 0001943  76.2290 283.8918 15.08851860 90997,6917.844,95.437,541.053,538.365,0.0
54080.0,STARLINK-5160,PAYLOAD,2024-06-09 11:29:21,15.08849969,0.0002585,53.2153,324.3278,76.6548,283.4732,0.00011518,1.546e-05,0.0,0 STARLINK-5160,1 54080U 22136AF  24161.47872274  .00001546  00000-0  11518-3 0  9991,2 54080  53.2153 324.3278 0002585  76.6548 283.4732 15.08849969 90561,6917.85,95.437,541.503,537.927,0.0
54080.0,STARLINK-5160,PAYLOAD,2024-06-09 17:50:54,15.08845659,0.0002304,53.2208,323.1379,85.3872,274.7384,-7.4672e-05,-1.477e-05,0.0,0 STARLINK-5160,1 54080U 22136AF  24161.74368102 -.00001477  00000-0 -74672-4 0  9997,2 54080  53.2208 323.1379 0002304  85.3872 274.7384 15.08845659 91083,6917.863,95.437,541.322,538.134,0.0
54080.0,STARLINK-5160,PAYLOAD,2024-06-10 03:23:13,15.08817075,0.0002588,53.2187,321.3497,79.4693,280.6591,-0.0005597,-9.18e-05,0.0,0 STARLINK-5160,1 54080U 22136AF  24162.14113381 -.00009180  00000-0 -55970-3 0  9997,2 54080  53.2187 321.3497 0002588  79.4693 280.6591 15.08817075 91143,6917.95,95.439,541.606,538.025,0.0
54080.0,STARLINK-5160,PAYLOAD,2024-06-10 14:30:55,15.0882151,0.0001262,53.2169,319.2703,71.7402,288.3727,-0.0003603,-6.014e-05,0.0,0 STARLINK-5160,1 54080U 22136AF  24162.60481372 -.00006014  00000-0 -36030-3 0  9995,2 54080  53.2169 319.2703 0001262  71.7402 288.3727 15.08821510 90739,6917.937,95.439,540.675,538.929,0.0
54080.0,STARLINK-5160,PAYLOAD,2024-06-10 17:41:41,15.08834013,0.0001244,53.2172,318.6758,64.7001,295.412,-3.9068e-05,-9.09e-06,0.0,0 STARLINK-5160,1 54080U 22136AF  24162.73729102 -.00000909  00000-0 -39068-4 0  9997,2 54080  53.2172 318.6758 0001244  64.7001 295.4120 15.08834013 91237,6917.899,95.438,540.624,538.903,0.0
54080.0,STARLINK-5160,PAYLOAD,2024-06-10 20:52:28,15.08833677,0.0001208,53.2167,318.082,76.9197,283.193,1.6286e-05,-2.9e-07,0.0,0 STARLINK-5160,1 54080U 22136AF  24162.86977245 -.00000029  00000-0  16286-4 0  9993,2 54080  53.2167 318.0820 0001208  76.9197 283.1930 15.08833677 90772,6917.9,95.438,540.6,538.929,0.0
54080.0,STARLINK-5160,PAYLOAD,2024-06-11 14:21:43,15.08837123,0.0001377,53.217,314.8117,78.84,281.2747,0.00028831,4.303e-05,0.0,0 STARLINK-5160,1 54080U 22136AF  24163.59841756  .00004303  00000-0  28831-3 0  9997,2 54080  53.2170 314.8117 0001377  78.8400 281.2747 15.08837123 90881,6917.889,95.438,540.707,538.802,0.0
54080.0,STARLINK-5160,PAYLOAD,2024-06-11 17:32:29,15.08845699,0.000144,53.2173,314.2159,75.9156,284.1996,0.00049688,7.63e-05,0.0,0 STARLINK-5160,1 54080U 22136AF  24163.73089668  .00007630  00000-0  49688-3 0  9998,2 54080  53.2173 314.2159 0001440  75.9156 284.1996 15.08845699 91382,6917.863,95.437,540.724,538.732,0.0
54080.0,STARLINK-5160,PAYLOAD,2024-06-12 17:23:17,15.08837748,0.0001151,53.2172,309.7564,83.6032,276.5091,0.00022416,3.281e-05,0.0,0 STARLINK-5160,1 54080U 22136AF  24164.72450572  .00003281  00000-0  22416-3 0  9992,2 54080  53.2172 309.7564 0001151  83.6032 276.5091 15.08837748 91532,6917.887,95.438,540.549,538.956,0.0
54080.0,STARLINK-5160,PAYLOAD,2024-06-13 14:03:18,15.0884398,0.0001122,53.2169,305.8928,86.5263,273.5857,0.00031219,4.685e-05,0.0,0 STARLINK-5160,1 54080U 22136AF  24165.58562608  .00004685  00000-0  31219-3 0  9991,2 54080  53.2169 305.8928 0001122  86.5263 273.5857 15.08843980 91188,6917.868,95.437,540.509,538.957,0.0
54080.0,STARLINK-5160,PAYLOAD,2024-06-13 15:38:41,15.08847359,0.0001081,53.2163,305.5927,97.9527,262.1588,0.00037263,5.649e-05,0.0,0 STARLINK-5160,1 54080U 22136AF  24165.65186422  .00005649  00000-0  37263-3 0  9991,2 54080  53.2163 305.5927 0001081  97.9527 262.1588 15.08847359 91191,6917.858,95.437,540.471,538.975,0.0
54080.0,STARLINK-5160,PAYLOAD,2024-06-14 13:54:04,15.08846848,0.0001033,53.2156,301.4313,89.0542,271.0568,0.00026102,3.87e-05,0.0,0 STARLINK-5160,1 54080U 22136AF  24166.57922433  .00003870  00000-0  26102-3 0  9997,2 54080  53.2156 301.4313 0001033  89.0542 271.0568 15.08846848 91338,6917.859,95.437,540.439,539.01,0.0
54080.0,STARLINK-5160,PAYLOAD,2024-06-14 18:40:14,15.08851328,9.88e-05,53.2164,300.5364,105.6021,254.508,0.00030277,4.536e-05,0.0,0 STARLINK-5160,1 54080U 22136AF  24166.77794124  .00004536  00000-0  30277-3 0  9991,2 54080  53.2164 300.5364 0000988 105.6021 254.5080 15.08851328 91365,6917.846,95.437,540.394,539.027,0.0
54080.0,STARLINK-5160,PAYLOAD,2024-06-15 15:20:14,15.08848865,0.000113,53.2155,296.6699,94.7945,265.3176,0.00013784,1.907e-05,0.0,0 STARLINK-5160,1 54080U 22136AF  24167.63906013  .00001907  00000-0  13784-3 0  9992,2 54080  53.2155 296.6699 0001130  94.7945 265.3176 15.08848865 91496,6917.853,95.437,540.5,538.937,0.0
54080.0,STARLINK-5160,PAYLOAD,2024-06-15 18:31:01,15.08849306,0.0001192,53.2164,296.0756,97.133,262.9798,0.00018026,2.583e-05,0.0,0 STARLINK-5160,1 54080U 22136AF  24167.77153964  .00002583  00000-0  18026-3 0  9991,2 54080  53.2164 296.0756 0001192  97.1330 262.9798 15.08849306 91514,6917.852,95.437,540.542,538.892,0.0
54080.0,STARLINK-5160,PAYLOAD,2024-06-16 13:35:38,15.08841856,0.0001228,53.2162,292.5051,104.3011,255.8118,1.7582e-05,-8e-08,0.0,0 STARLINK-5160,1 54080U 22136AF  24168.56642224 -.00000008  00000-0  17582-4 0  9999,2 54080  53.2162 292.5051 0001228 104.3011 255.8118 15.08841856 92114,6917.875,95.437,540.589,538.89,0.0
54080.0,STARLINK-5160,PAYLOAD,2024-06-16 15:11:01,15.08844308,0.0001125,53.2177,292.209,94.858,265.254,8.2028e-05,1.018e-05,0.0,0 STARLINK-5160,1 54080U 22136AF  24168.63266124  .00001018  00000-0  82028-4 0  9996,2 54080  53.2177 292.2090 0001125  94.8580 265.2540 15.08844308 91646,6917.867,95.437,540.51,538.954,0.0
54080.0,STARLINK-5160,PAYLOAD,2024-06-17 15:01:48,15.0885294,0.0001155,53.2166,287.7543,90.1236,269.9888,0.00014718,2.056e-05,0.0,0 STARLINK-5160,1 54080U 22136AF  24169.62625501  .00002056  00000-0  14718-3 0  9997,2 54080  53.2166 287.7543 0001155  90.1236 269.9888 15.08852940 92273,6917.841,95.437,540.505,538.907,0.0
54080.0,STARLINK-5160,PAYLOAD,2024-06-18 13:17:13,15.0883751,0.0001154,53.2166,283.5912,94.3682,265.7441,3.5405e-05,2.76e-06,0.0,0 STARLINK-5160,1 54080U 22136AF  24170.55362382  .00000276  00000-0  35405-4 0  9995,2 54080  53.2166 283.5912 0001154  94.3682 265.7441 15.08837510 92418,6917.888,95.438,540.551,538.955,0.0
54080.0,STARLINK-5160,PAYLOAD,2024-06-18 14:52:36,15.08833611,0.0001146,53.2164,283.2935,91.8341,268.2782,-2.9735e-05,-7.61e-06,0.0,0 STARLINK-5160,1 54080U 22136AF  24170.61986562 -.00000761  00000-0 -29735-4 0  9994,2 54080  53.2164 283.2935 0001146  91.8341 268.2782 15.08833611 91944,6917.9,95.438,540.558,538.972,0.0
54080.0,STARLINK-5160,PAYLOAD,2024-06-19 13:08:00,15.08833195,0.0001195,53.2162,279.1301,88.0805,272.0324,-5.228e-05,-1.12e-05,0.0,0 STARLINK-5160,1 54080U 22136AF  24171.54723013 -.00001120  00000-0 -52280-4 0  9998,2 54080  53.2162 279.1301 0001195  88.0805 272.0324 15.08833195 92561,6917.901,95.438,540.593,538.94,0.0
54080.0,STARLINK-5160,PAYLOAD,2024-06-19 14:43:23,15.08838602,0.0001287,53.2172,278.833,102.1585,257.9552,1.5693e-05,-3.8e-07,0.0,0 STARLINK-5160,1 54080U 22136AF  24171.61347065 -.00000038  00000-0  15693-4 0  9998,2 54080  53.2172 278.8330 0001287 102.1585 257.9552 15.08838602 92096,6917.885,95.438,540.64,538.859,0.0
54080.0,STARLINK-5160,PAYLOAD,2024-06-20 14:34:10,15.08843578,0.0001247,53.2164,274.373,83.4189,276.6945,0.00025687,3.803e-05,0.0,0 STARLINK-5160,1 54080U 22136AF  24172.60706920  .00003803  00000-0  25687-3 0  9992,2 54080  53.2164 274.3730 0001247  83.4189 276.6945 15.08843578 92248,6917.869,95.437,540.597,538.872,0.0
